IRIDIUM 106             
1 41917U 17003A   25185.50872966  .00000019  00000+0 -41313-6 0  9995
2 41917  86.3961 233.7645 0001983  82.9939 277.1482 14.34217551443373
IRIDIUM 103             
1 41918U 17003B   25185.63558294  .00000066  00000+0  16542-4 0  9990
2 41918  86.3960 233.6122 0002788  83.7963 276.3551 14.34217895443427
IRIDIUM 109             
1 41919U 17003C   25184.66516566  .00000010  00000+0 -33174-5 0  9990
2 41919  86.3967 234.0714 0002392  94.1101 266.0368 14.34217478443247
IRIDIUM 102             
1 41920U 17003D   25185.54044275  .00000060  00000+0  14185-4 0  9997
2 41920  86.3961 233.6365 0002348  95.9887 264.1577 14.34217516443458
IRIDIUM 105             
1 41921U 17003E   25184.74372168  .00000186  00000+0  59466-4 0  9994
2 41921  86.3983 202.4415 0002481  88.5826 271.5654 14.34216738445198
IRIDIUM 104             
1 41922U 17003F   25185.62289658  .00000106  00000+0  30831-4 0  9991
2 41922  86.3961 233.6396 0002764  93.1613 266.9899 14.34218455443453
IRIDIUM 114             
1 41923U 17003G   25185.48970250  .00000010  00000+0 -33179-5 0  9995
2 41923  86.3965 233.6796 0002367  86.6102 273.5364 14.34217538443431
IRIDIUM 108             
1 41924U 17003H   25185.09938036 -.00000042  00000+0 -21928-4 0  9993
2 41924  86.3983 202.1931 0001993  90.3347 269.8077 14.34217171445233
